STARLINK-33566          
1 62100U 24220N   26068.38070357  .00032113  00000+0  11707-2 0  9991
2 62100  43.0033 192.5791 0002914 270.6641  89.3877 15.27597971 73319
TEVEL2-7                
1 63238U 25052AE  26068.66113295  .00019244  00000+0  69668-3 0  9998
2 63238  97.4054 324.3041 0008105 124.6830 235.5175 15.28414096 54803
